{"fetched_at":"2026-07-10T18:07:50.152Z","source":"https://celestrak.org/NORAD/elements/gp.php?GROUP=kuiper&FORMAT=JSON","constellation":"kuiper","records":[{"OBJECT_NAME":"KUIPER-00140","OBJECT_ID":"2025-228U","EPOCH":"2026-07-09T15:16:48.462528","CLASSIFICATION_TYPE":"U","MEAN_MOTION":14.79932072,"ECCENTRICITY":0.00005981,"INCLINATION":51.8981,"RA_OF_ASC_NODE":166.4134,"ARG_OF_PERICENTER":73.8485,"MEAN_ANOMALY":286.2543,"EPHEMERIS_TYPE":0,"NORAD_CAT_ID":65965,"ELEMENT_SET_NO":999,"REV_AT_EPOCH":4149,"BSTAR":0.00024257909,"MEAN_MOTION_DOT":0.00001629,"MEAN_MOTION_DDOT":0},{"OBJECT_NAME":"KUIPER-00141","OBJECT_ID":"2025-228V","EPOCH":"2026-07-09T15:24:35.685216","CLASSIFICATION_TYPE":"U","MEAN_MOTION":14.79924701,"ECCENTRICITY":0.00007171,"INCLINATION":51.9009,"RA_OF_ASC_NODE":161.4438,"ARG_OF_PERICENTER":72.4235,"MEAN_ANOMALY":287.6805,"EPHEMERIS_TYPE":0,"NORAD_CAT_ID":65966,"ELEMENT_SET_NO":999,"REV_AT_EPOCH":4156,"BSTAR":0.00026696417,"MEAN_MOTION_DOT":0.00001814,"MEAN_MOTION_DDOT":0},{"OBJECT_NAME":"KUIPER-00146","OBJECT_ID":"2025-228W","EPOCH":"2026-07-09T08:03:07.232832","CLASSIFICATION_TYPE":"U","MEAN_MOTION":14.79930617,"ECCENTRICITY":0.00006648,"INCLINATION":51.9024,"RA_OF_ASC_NODE":165.3095,"ARG_OF_PERICENTER":63.0004,"MEAN_ANOMALY":297.1026,"EPHEMERIS_TYPE":0,"NORAD_CAT_ID":65967,"ELEMENT_SET_NO":999,"REV_AT_EPOCH":4148,"BSTAR":0.00004241198,"MEAN_MOTION_DOT":0.00000102,"MEAN_MOTION_DDOT":0},{"OBJECT_NAME":"KUIPER-00149","OBJECT_ID":"2025-228X","EPOCH":"2026-07-10T07:40:52.006368","CLASSIFICATION_TYPE":"U","MEAN_MOTION":14.79910865,"ECCENTRICITY":0.00007129,"INCLINATION":51.9006,"RA_OF_ASC_NODE":155.8425,"ARG_OF_PERICENTER":83.1153,"MEAN_ANOMALY":276.989,"EPHEMERIS_TYPE":0,"NORAD_CAT_ID":65968,"ELEMENT_SET_NO":999,"REV_AT_EPOCH":4170,"BSTAR":0.00028135105,"MEAN_MOTION_DOT":0.00001923,"MEAN_MOTION_DDOT":0},{"OBJECT_NAME":"KUIPER-00154","OBJECT_ID":"2025-228Y","EPOCH":"2026-07-10T06:56:08.148480","CLASSIFICATION_TYPE":"U","MEAN_MOTION":14.79938028,"ECCENTRICITY":0.00007205,"INCLINATION":51.8984,"RA_OF_ASC_NODE":153.4704,"ARG_OF_PERICENTER":70.4837,"MEAN_ANOMALY":289.6204,"EPHEMERIS_TYPE":0,"NORAD_CAT_ID":65969,"ELEMENT_SET_NO":999,"REV_AT_EPOCH":4173,"BSTAR":0.0002739297,"MEAN_MOTION_DOT":0.00001868,"MEAN_MOTION_DDOT":0},{"OBJECT_NAME":"KUIPER-00157","OBJECT_ID":"2025-228Z","EPOCH":"2026-07-10T06:46:02.822304","CLASSIFICATION_TYPE":"U","MEAN_MOTION":14.81188788,"ECCENTRICITY":0.00008935,"INCLINATION":51.9004,"RA_OF_ASC_NODE":156.0953,"ARG_OF_PERICENTER":38.116,"MEAN_ANOMALY":321.9865,"EPHEMERIS_TYPE":0,"NORAD_CAT_ID":65970,"ELEMENT_SET_NO":999,"REV_AT_EPOCH":4169,"BSTAR":0.00027206258,"MEAN_MOTION_DOT":0.00001914,"MEAN_MOTION_DDOT":0},{"OBJECT_NAME":"KUIPER-00144","OBJECT_ID":"2025-301A","EPOCH":"2026-07-09T09:24:59.359680","CLASSIFICATION_TYPE":"U","MEAN_MOTION":14.79929871,"ECCENTRICITY":0.00002633,"INCLINATION":51.9017,"RA_OF_ASC_NODE":237.4508,"ARG_OF_PERICENTER":73.286,"MEAN_ANOMALY":286.8131,"EPHEMERIS_TYPE":0,"NORAD_CAT_ID":67133,"ELEMENT_SET_NO":999,"REV_AT_EPOCH":3189,"BSTAR":0.00027886462,"MEAN_MOTION_DOT":0.00001905,"MEAN_MOTION_DDOT":0},{"OBJECT_NAME":"KUIPER-00164","OBJECT_ID":"2025-301B","EPOCH":"2026-07-10T04:02:42.426240","CLASSIFICATION_TYPE":"U","MEAN_MOTION":14.76517226,"ECCENTRICITY":0.00015661,"INCLINATION":51.9027,"RA_OF_ASC_NODE":246.3091,"ARG_OF_PERICENTER":324.8876,"MEAN_ANOMALY":35.1982,"EPHEMERIS_TYPE":0,"NORAD_CAT_ID":67134,"ELEMENT_SET_NO":999,"REV_AT_EPOCH":3201,"BSTAR":-0.00067138573,"MEAN_MOTION_DOT":-0.00004933,"MEAN_MOTION_DDOT":0},{"OBJECT_NAME":"KUIPER-00175","OBJECT_ID":"2025-301C","EPOCH":"2026-07-10T06:00:02.000160","CLASSIFICATION_TYPE":"U","MEAN_MOTION":14.81491264,"ECCENTRICITY":0.00001828,"INCLINATION":51.8987,"RA_OF_ASC_NODE":228.6363,"ARG_OF_PERICENTER":11.6154,"MEAN_ANOMALY":22.6147,"EPHEMERIS_TYPE":0,"NORAD_CAT_ID":67135,"ELEMENT_SET_NO":999,"REV_AT_EPOCH":566,"BSTAR":-0.0082557455,"MEAN_MOTION_DOT":-0.00064921,"MEAN_MOTION_DDOT":0},{"OBJECT_NAME":"KUIPER-00179","OBJECT_ID":"2025-301D","EPOCH":"2026-07-10T02:59:07.710720","CLASSIFICATION_TYPE":"U","MEAN_MOTION":14.79926145,"ECCENTRICITY":0.00004616,"INCLINATION":51.8964,"RA_OF_ASC_NODE":244.1837,"ARG_OF_PERICENTER":93.5615,"MEAN_ANOMALY":266.5401,"EPHEMERIS_TYPE":0,"NORAD_CAT_ID":67136,"ELEMENT_SET_NO":999,"REV_AT_EPOCH":3204,"BSTAR":0.000070925872,"MEAN_MOTION_DOT":0.0000032,"MEAN_MOTION_DDOT":0},{"OBJECT_NAME":"KUIPER-00181","OBJECT_ID":"2025-301E","EPOCH":"2026-07-09T18:33:29.876544","CLASSIFICATION_TYPE":"U","MEAN_MOTION":14.798921,"ECCENTRICITY":0.00013983,"INCLINATION":51.9026,"RA_OF_ASC_NODE":258.2738,"ARG_OF_PERICENTER":49.0831,"MEAN_ANOMALY":311.0252,"EPHEMERIS_TYPE":0,"NORAD_CAT_ID":67137,"ELEMENT_SET_NO":999,"REV_AT_EPOCH":3179,"BSTAR":0.0020448398,"MEAN_MOTION_DOT":0.00015388,"MEAN_MOTION_DDOT":0},{"OBJECT_NAME":"KUIPER-00183","OBJECT_ID":"2025-301F","EPOCH":"2026-07-10T02:22:41.893536","CLASSIFICATION_TYPE":"U","MEAN_MOTION":14.92792467,"ECCENTRICITY":0.0009628,"INCLINATION":51.8918,"RA_OF_ASC_NODE":229.5604,"ARG_OF_PERICENTER":107.3942,"MEAN_ANOMALY":252.8079,"EPHEMERIS_TYPE":0,"NORAD_CAT_ID":67138,"ELEMENT_SET_NO":999,"REV_AT_EPOCH":3223,"BSTAR":-0.00022435972,"MEAN_MOTION_DOT":-0.00002597,"MEAN_MOTION_DDOT":0},{"OBJECT_NAME":"KUIPER-00184","OBJECT_ID":"2025-301G","EPOCH":"2026-07-10T03:55:28.866720","CLASSIFICATION_TYPE":"U","MEAN_MOTION":14.79928098,"ECCENTRICITY":0.00002231,"INCLINATION":51.8987,"RA_OF_ASC_NODE":239.0115,"ARG_OF_PERICENTER":242.7126,"MEAN_ANOMALY":117.3814,"EPHEMERIS_TYPE":0,"NORAD_CAT_ID":67139,"ELEMENT_SET_NO":999,"REV_AT_EPOCH":3221,"BSTAR":0.00022873282,"MEAN_MOTION_DOT":0.00001523,"MEAN_MOTION_DDOT":0},{"OBJECT_NAME":"KUIPER-00186","OBJECT_ID":"2025-301H","EPOCH":"2026-07-10T05:05:35.093472","CLASSIFICATION_TYPE":"U","MEAN_MOTION":14.79930852,"ECCENTRICITY":0.00005082,"INCLINATION":51.9025,"RA_OF_ASC_NODE":256.3442,"ARG_OF_PERICENTER":83.0629,"MEAN_ANOMALY":277.0391,"EPHEMERIS_TYPE":0,"NORAD_CAT_ID":67140,"ELEMENT_SET_NO":999,"REV_AT_EPOCH":3170,"BSTAR":0.00026444901,"MEAN_MOTION_DOT":0.00001795,"MEAN_MOTION_DDOT":0},{"OBJECT_NAME":"KUIPER-00187","OBJECT_ID":"2025-301J","EPOCH":"2026-07-10T03:24:28.164096","CLASSIFICATION_TYPE":"U","MEAN_MOTION":14.79921052,"ECCENTRICITY":0.00005484,"INCLINATION":51.9024,"RA_OF_ASC_NODE":259.1774,"ARG_OF_PERICENTER":92.4678,"MEAN_ANOMALY":267.6348,"EPHEMERIS_TYPE":0,"NORAD_CAT_ID":67141,"ELEMENT_SET_NO":999,"REV_AT_EPOCH":3165,"BSTAR":0.00016377626,"MEAN_MOTION_DOT":0.00001027,"MEAN_MOTION_DDOT":0},{"OBJECT_NAME":"KUIPER-00188","OBJECT_ID":"2025-301K","EPOCH":"2026-07-08T09:17:59.387424","CLASSIFICATION_TYPE":"U","MEAN_MOTION":14.7992956,"ECCENTRICITY":0.00005438,"INCLINATION":51.9009,"RA_OF_ASC_NODE":234.5207,"ARG_OF_PERICENTER":98.6803,"MEAN_ANOMALY":261.4221,"EPHEMERIS_TYPE":0,"NORAD_CAT_ID":67142,"ELEMENT_SET_NO":999,"REV_AT_EPOCH":3184,"BSTAR":0.0002080328,"MEAN_MOTION_DOT":0.00001365,"MEAN_MOTION_DDOT":0}]}
