KUIPER-00140            
1 65965U 25228U   26190.63667202  .00001629  00000+0  24258-3 0  9991
2 65965  51.8981 166.4134 0000598  73.8485 286.2543 14.79932072 41499
KUIPER-00141            
1 65966U 25228V   26190.64207969  .00001814  00000+0  26696-3 0  9997
2 65966  51.9009 161.4438 0000717  72.4235 287.6805 14.79924701 41569
KUIPER-00146            
1 65967U 25228W   26190.33550038  .00000102  00000+0  42412-4 0  9996
2 65967  51.9024 165.3095 0000664  63.0004 297.1026 14.79930617 41485
KUIPER-00149            
1 65968U 25228X   26191.32004637  .00001923  00000+0  28135-3 0  9993
2 65968  51.9006 155.8425 0000712  83.1153 276.9890 14.79910865 41701
KUIPER-00154            
1 65969U 25228Y   26191.28898320  .00001868  00000+0  27393-3 0  9992
2 65969  51.8984 153.4704 0000720  70.4837 289.6204 14.79938028 41731
KUIPER-00157            
1 65970U 25228Z   26191.28197711  .00001914  00000+0  27206-3 0  9995
2 65970  51.9004 156.0953 0000893  38.1160 321.9865 14.81188788 41694
KUIPER-00144            
1 67133U 25301A   26190.39235370  .00001905  00000+0  27886-3 0  9999
2 67133  51.9017 237.4508 0000263  73.2860 286.8131 14.79929871 31898
KUIPER-00164            
1 67134U 25301B   26191.16854660 -.00004933  00000+0 -67139-3 0  9996
2 67134  51.9027 246.3091 0001566 324.8876  35.1982 14.76517226 32013
KUIPER-00175            
1 67135U 25301C   26191.25002315 -.00064921  00000+0 -82557-2 0  9992
2 67135  51.8987 228.6363 0000182  11.6154  22.6147 14.81491264  5660
KUIPER-00179            
1 67136U 25301D   26191.12439480  .00000320  00000+0  70926-4 0  9996
2 67136  51.8964 244.1837 0000461  93.5615 266.5401 14.79926145 32048
KUIPER-00181            
1 67137U 25301E   26190.77326246  .00015388  00000+0  20448-2 0  9994
2 67137  51.9026 258.2738 0001398  49.0831 311.0252 14.79892100 31795
KUIPER-00183            
1 67138U 25301F   26191.09909599 -.00002597  00000+0 -22436-3 0  9999
2 67138  51.8918 229.5604 0009628 107.3942 252.8079 14.92792467 32232
KUIPER-00184            
1 67139U 25301G   26191.16352855  .00001523  00000+0  22873-3 0  9996
2 67139  51.8987 239.0115 0000223 242.7126 117.3814 14.79928098 32218
KUIPER-00186            
1 67140U 25301H   26191.21221173  .00001795  00000+0  26445-3 0  9992
2 67140  51.9025 256.3442 0000508  83.0629 277.0391 14.79930852 31707
KUIPER-00187            
1 67141U 25301J   26191.14199264  .00001027  00000+0  16378-3 0  9992
2 67141  51.9024 259.1774 0000548  92.4678 267.6348 14.79921052 31651
KUIPER-00188            
1 67142U 25301K   26189.38749291  .00001365  00000+0  20803-3 0  9990
2 67142  51.9009 234.5207 0000543  98.6803 261.4221 14.79929560 31841
